NORAD_CAT_ID,OBJECT_NAME,OBJECT_TYPE,EPOCH,MEAN_MOTION,ECCENTRICITY,INCLINATION,RA_OF_ASC_NODE,ARG_OF_PERICENTER,MEAN_ANOMALY,BSTAR,MEAN_MOTION_DOT,MEAN_MOTION_DDOT,TLE_LINE0,TLE_LINE1,TLE_LINE2,SEMIMAJOR_AXIS,PERIOD,APOGEE,PERIGEE,DECAYED
55956.0,STARLINK-5883,PAYLOAD,2024-04-03 19:43:57,14.98332712,0.0002885,70.0002,241.5608,270.5602,89.5226,-6.4923e-05,-8.68e-06,0.0,0 STARLINK-5883,1 55956U 23037AU  24094.82219675 -.00000868  00000-0 -64923-4 0  9996,2 55956  70.0002 241.5608 0002885 270.5602  89.5226 14.98332712 58894,6950.185,96.107,574.055,570.044,0.0
55956.0,STARLINK-5883,PAYLOAD,2024-04-04 03:44:38,14.98321805,0.0002915,70.0001,240.7195,271.2859,88.7967,0.0001184,1.32e-05,0.0,0 STARLINK-5883,1 55956U 23037AU  24095.15600037  .00001320  00000-0  11840-3 0  9990,2 55956  70.0001 240.7195 0002915 271.2859  88.7967 14.98321805 59289,6950.218,96.108,574.109,570.057,0.0
55956.0,STARLINK-5883,PAYLOAD,2024-04-04 14:57:34,14.98322891,0.0002943,70.0001,239.5412,271.3522,88.73,0.00015857,1.799e-05,0.0,0 STARLINK-5883,1 55956U 23037AU  24095.62332068  .00001799  00000-0  15857-3 0  9990,2 55956  70.0001 239.5412 0002943 271.3522  88.7300 14.98322891 59014,6950.215,96.107,574.125,570.034,0.0
55956.0,STARLINK-5883,PAYLOAD,2024-04-04 19:45:58,14.9832829,0.0002971,70.0001,239.0363,271.496,88.5859,0.00015849,1.798e-05,0.0,0 STARLINK-5883,1 55956U 23037AU  24095.82359759  .00001798  00000-0  15849-3 0  9998,2 55956  70.0001 239.0363 0002971 271.4960  88.5859 14.98328290 59041,6950.198,96.107,574.128,569.998,0.0
55956.0,STARLINK-5883,PAYLOAD,2024-04-05 11:47:19,14.98333395,0.0002928,70.0004,237.3532,271.857,88.2254,3.8594e-05,3.68e-06,0.0,0 STARLINK-5883,1 55956U 23037AU  24096.49119759  .00000368  00000-0  38594-4 0  9991,2 55956  70.0004 237.3532 0002928 271.8570  88.2254 14.98333395 59482,6950.182,96.107,574.082,570.012,0.0
55956.0,STARLINK-5883,PAYLOAD,2024-04-05 13:23:27,14.98333433,0.0002929,70.0004,237.1849,271.8554,88.227,3.8171e-05,3.63e-06,0.0,0 STARLINK-5883,1 55956U 23037AU  24096.55795738  .00000363  00000-0  38171-4 0  9991,2 55956  70.0004 237.1849 0002929 271.8554  88.2270 14.98333433 59159,6950.182,96.107,574.083,570.012,0.0
55956.0,STARLINK-5883,PAYLOAD,2024-04-05 19:47:59,14.98332287,0.0002387,70.0006,236.5116,268.0316,92.057,0.00015293,1.732e-05,0.0,0 STARLINK-5883,1 55956U 23037AU  24096.82499482  .00001732  00000-0  15293-3 0  9998,2 55956  70.0006 236.5116 0002387 268.0316  92.0570 14.98332287 59199,6950.186,96.107,573.71,570.392,0.0
55956.0,STARLINK-5883,PAYLOAD,2024-04-06 08:37:04,14.98333937,0.0002514,70.002,235.1663,263.413,96.6743,5.6074e-07,-8.6e-07,0.0,0 STARLINK-5883,1 55956U 23037AU  24097.35907565 -.00000086  00000-0  56074-6 0  9990,2 55956  70.0020 235.1663 0002514 263.4130  96.6743 14.98333937 59276,6950.181,96.107,573.793,570.298,0.0
55956.0,STARLINK-5883,PAYLOAD,2024-04-06 19:50:01,14.98327159,0.0002494,70.0016,233.9876,260.8987,99.189,-4.4359e-05,-6.22e-06,0.0,0 STARLINK-5883,1 55956U 23037AU  24097.82640075 -.00000622  00000-0 -44359-4 0  9990,2 55956  70.0016 233.9876 0002494 260.8987  99.1890 14.98327159 59686,6950.202,96.107,573.8,570.333,0.0
55956.0,STARLINK-5883,PAYLOAD,2024-04-07 10:15:13,14.98326831,0.0002983,70.0024,232.4706,264.1713,95.9106,-2.9771e-06,-1.28e-06,0.0,0 STARLINK-5883,1 55956U 23037AU  24098.42723813 -.00000128  00000-0 -29771-5 0  9992,2 55956  70.0024 232.4706 0002983 264.1713  95.9106 14.98326831 59431,6950.203,96.107,574.141,569.994,0.0
55956.0,STARLINK-5883,PAYLOAD,2024-04-08 02:16:34,14.98328315,0.0002728,70.0019,230.7892,274.1312,85.9535,-7.4232e-05,-9.78e-06,0.0,0 STARLINK-5883,1 55956U 23037AU  24099.09484140 -.00000978  00000-0 -74232-4 0  9997,2 55956  70.0019 230.7892 0002728 274.1312  85.9535 14.98328315 59877,6950.198,96.107,573.959,570.167,0.0
55956.0,STARLINK-5883,PAYLOAD,2024-04-08 15:05:38,14.98331452,0.0003008,70.0002,229.4424,270.8064,89.2751,2.9732e-05,2.62e-06,0.0,0 STARLINK-5883,1 55956U 23037AU  24099.62891616  .00000262  00000-0  29732-4 0  9995,2 55956  70.0002 229.4424 0003008 270.8064  89.2751 14.98331452 59619,6950.188,96.107,574.144,569.963,0.0
55956.0,STARLINK-5883,PAYLOAD,2024-04-09 02:18:34,14.98328123,0.000302,69.9989,228.2636,270.6014,89.4799,3.242e-05,2.94e-06,0.0,0 STARLINK-5883,1 55956U 23037AU  24100.09623801  .00000294  00000-0  32420-4 0  9991,2 55956  69.9989 228.2636 0003020 270.6014  89.4799 14.98328123 60021,6950.199,96.107,574.163,569.965,0.0
55956.0,STARLINK-5883,PAYLOAD,2024-04-09 15:07:39,14.98330679,0.0003065,69.9991,226.9174,271.3448,88.7359,6.7468e-05,7.12e-06,0.0,0 STARLINK-5883,1 55956U 23037AU  24100.63031577  .00000712  00000-0  67468-4 0  9999,2 55956  69.9991 226.9174 0003065 271.3448  88.7359 14.98330679 59766,6950.191,96.107,574.186,569.926,0.0
55956.0,STARLINK-5883,PAYLOAD,2024-04-10 10:21:16,14.98331183,0.0003026,69.9998,224.8975,271.5183,88.563,3.2044e-06,-5.5e-07,0.0,0 STARLINK-5883,1 55956U 23037AU  24101.43143682 -.00000055  00000-0  32044-5 0  9993,2 55956  69.9998 224.8975 0003026 271.5183  88.5630 14.98331183 60228,6950.189,96.107,574.157,569.951,0.0
55956.0,STARLINK-5883,PAYLOAD,2024-04-10 15:09:40,14.98335652,0.0003179,70.0,224.3929,272.1466,87.9329,1.6868e-05,1.08e-06,0.0,0 STARLINK-5883,1 55956U 23037AU  24101.63171323  .00000108  00000-0  16868-4 0  9991,2 55956  70.0000 224.3929 0003179 272.1466  87.9329 14.98335652 59916,6950.175,96.107,574.25,569.831,0.0
55956.0,STARLINK-5883,PAYLOAD,2024-04-10 18:21:56,14.98336349,0.0003149,70.0,224.0561,272.2207,87.8592,2.4301e-05,1.97e-06,0.0,0 STARLINK-5883,1 55956U 23037AU  24101.76523209  .00000197  00000-0  24301-4 0  9998,2 55956  70.0000 224.0561 0003149 272.2207  87.8592 14.98336349 59933,6950.173,96.107,574.227,569.85,0.0
55956.0,STARLINK-5883,PAYLOAD,2024-04-11 11:59:25,14.98329434,0.0003009,70.0006,222.2047,272.9417,87.1397,-3.2545e-05,-4.81e-06,0.0,0 STARLINK-5883,1 55956U 23037AU  24102.49959739 -.00000481  00000-0 -32545-4 0  9997,2 55956  70.0006 222.2047 0003009 272.9417  87.1397 14.98329434 60387,6950.195,96.107,574.151,569.968,0.0
55956.0,STARLINK-5883,PAYLOAD,2024-04-11 13:35:33,14.98328932,0.0003017,70.0007,222.0364,272.9565,87.1249,-3.6417e-05,-5.27e-06,0.0,0 STARLINK-5883,1 55956U 23037AU  24102.56635783 -.00000527  00000-0 -36417-4 0  9998,2 55956  70.0007 222.0364 0003017 272.9565  87.1249 14.98328932 60053,6950.196,96.107,574.158,569.964,0.0
55956.0,STARLINK-5883,PAYLOAD,2024-04-11 16:47:48,14.98388585,0.0003186,70.0011,221.7008,267.4298,92.6497,-0.0010062,-0.00012097,0.0,0 STARLINK-5883,1 55956U 23037AU  24102.69986124 -.00012097  00000-0 -10062-2 0  9991,2 55956  70.0011 221.7008 0003186 267.4298  92.6497 14.98388585 60414,6950.012,96.103,574.091,569.662,0.0
55956.0,STARLINK-5883,PAYLOAD,2024-04-12 00:48:29,14.98329569,0.000289,70.0011,220.8588,272.603,87.4798,-8.179e-06,-1.91e-06,0.0,0 STARLINK-5883,1 55956U 23037AU  24103.03367637 -.00000191  00000-0 -81790-5 0  9993,2 55956  70.0011 220.8588 0002890 272.6030  87.4798 14.98329569 60468,6950.194,96.107,574.068,570.051,0.0
55956.0,STARLINK-5883,PAYLOAD,2024-04-12 12:01:26,14.98329183,0.0002896,70.0013,219.6811,269.3603,90.7224,-4.5057e-05,-6.31e-06,0.0,0 STARLINK-5883,1 55956U 23037AU  24103.50099754 -.00000631  00000-0 -45057-4 0  9991,2 55956  70.0013 219.6811 0002896 269.3603  90.7224 14.98329183 60193,6950.195,96.107,574.073,570.048,0.0
55956.0,STARLINK-5883,PAYLOAD,2024-04-12 15:13:42,14.9832894,0.00029,70.0014,219.3446,269.2227,90.8599,-4.5389e-05,-6.34e-06,0.0,0 STARLINK-5883,1 55956U 23037AU  24103.63451776 -.00000634  00000-0 -45389-4 0  9992,2 55956  70.0014 219.3446 0002900 269.2227  90.8599 14.98328940 60211,6950.196,96.107,574.077,570.046,0.0
55956.0,STARLINK-5883,PAYLOAD,2024-04-13 12:03:26,14.98330767,0.0002906,70.0014,217.1564,264.426,95.6568,2.2707e-05,1.78e-06,0.0,0 STARLINK-5883,1 55956U 23037AU  24104.50239392  .00000178  00000-0  22707-4 0  9997,2 55956  70.0014 217.1564 0002906 264.4260  95.6568 14.98330767 60688,6950.191,96.107,574.075,570.036,0.0
55956.0,STARLINK-5883,PAYLOAD,2024-04-13 13:39:34,14.9833057,0.0002904,70.0014,216.9881,264.1303,95.9525,2.0438e-05,1.51e-06,0.0,0 STARLINK-5883,1 55956U 23037AU  24104.56915406  .00000151  00000-0  20438-4 0  9990,2 55956  70.0014 216.9881 0002904 264.1303  95.9525 14.98330570 60352,6950.191,96.107,574.074,570.038,0.0
55956.0,STARLINK-5883,PAYLOAD,2024-04-13 16:51:50,14.98333522,0.0002878,70.0015,216.6515,263.9033,96.1798,5.2914e-05,5.38e-06,0.0,0 STARLINK-5883,1 55956U 23037AU  24104.70267102  .00000538  00000-0  52914-4 0  9992,2 55956  70.0015 216.6515 0002878 263.9033  96.1798 14.98333522 60378,6950.182,96.107,574.047,570.047,0.0
55956.0,STARLINK-5883,PAYLOAD,2024-04-14 12:05:28,14.98324032,0.0002781,70.002,214.6325,261.419,98.6654,-5.2521e-05,-7.19e-06,0.0,0 STARLINK-5883,1 55956U 23037AU  24105.50380087 -.00000719  00000-0 -52521-4 0  9996,2 55956  70.0020 214.6325 0002781 261.4190  98.6654 14.98324032 60836,6950.211,96.107,574.009,570.143,0.0
55956.0,STARLINK-5883,PAYLOAD,2024-04-14 16:53:52,14.98322333,0.0002675,70.0024,214.1283,255.4015,104.6848,-3.1516e-05,-4.69e-06,0.0,0 STARLINK-5883,1 55956U 23037AU  24105.70408194 -.00000469  00000-0 -31516-4 0  9991,2 55956  70.0024 214.1283 0002675 255.4015 104.6848 14.98322333 60520,6950.217,96.107,573.941,570.222,0.0
55956.0,STARLINK-5883,PAYLOAD,2024-04-15 05:42:56,14.98333539,0.0002968,70.0021,212.7805,263.4771,96.605,1.9667e-05,1.42e-06,0.0,0 STARLINK-5883,1 55956U 23037AU  24106.23815346  .00000142  00000-0  19667-4 0  9990,2 55956  70.0021 212.7805 0002968 263.4771  96.6050 14.98333539 60945,6950.182,96.107,574.11,569.984,0.0
55956.0,STARLINK-5883,PAYLOAD,2024-04-15 13:43:36,14.98337315,0.0002783,70.0019,211.939,261.7038,98.3805,4.5651e-05,4.52e-06,0.0,0 STARLINK-5883,1 55956U 23037AU  24106.57194933  .00000452  00000-0  45651-4 0  9995,2 55956  70.0019 211.9390 0002783 261.7038  98.3805 14.98337315 60655,6950.17,96.107,573.97,570.101,0.0
